OBJECT_NAME,OBJECT_ID,EPOCH,MEAN_MOTION,ECCENTRICITY,INCLINATION,RA_OF_ASC_NODE,ARG_OF_PERICENTER,MEAN_ANOMALY,EPHEMERIS_TYPE,CLASSIFICATION_TYPE,NORAD_CAT_ID,ELEMENT_SET_NO,REV_AT_EPOCH,BSTAR,MEAN_MOTION_DOT,MEAN_MOTION_DDOT
ONEWEB-0246,2021-045V,2026-07-17T03:27:22.753440,13.15548038,.00020097,87.8994,253.2212,100.8004,259.3353,0,U,48786,999,24821,.53534523E-3,.214E-5,0
ONEWEB-0210,2021-045W,2026-07-17T10:08:57.588864,13.15548486,.0001896,87.8991,253.1632,122.2765,237.8550,0,U,48787,999,24829,-.13191E-3,-.37E-6,0
ONEWEB-0214,2021-045X,2026-07-17T03:03:24.400800,13.15547217,.0001778,87.8988,253.2193,103.5621,256.5708,0,U,48788,999,24822,.22701625E-3,.98E-6,0
ONEWEB-0221,2021-045Y,2026-07-17T14:10:49.747584,13.15548215,.0002217,87.8982,253.1363,103.0519,257.0859,0,U,48789,999,24837,.34693E-3,.143E-5,0
ONEWEB-0213,2021-045Z,2026-07-17T13:54:51.092064,13.15548535,.0002108,87.8987,253.1401,105.8702,254.2660,0,U,48790,999,24843,-.1785E-3,-.54E-6,0
ONEWEB-0212,2021-045AA,2026-07-17T02:24:37.024992,13.15547833,.0002138,87.8991,253.2301,95.8702,264.2672,0,U,48791,999,24836,-.1142E-3,-.3E-6,0
ONEWEB-0227,2021-045AB,2026-07-17T02:23:29.353920,13.15548232,.00021226,87.8989,253.2302,98.7676,261.3695,0,U,48792,999,24831,-.23874193E-3,-.77E-6,0
ONEWEB-0226,2021-045AC,2026-07-17T02:14:21.652224,13.15548389,.00020319,87.8990,253.2360,103.8240,256.3117,0,U,48793,999,24828,-.66173236E-4,-.12E-6,0
ONEWEB-0224,2021-045AD,2026-07-17T10:29:30.123744,13.15548496,.0002973,87.8980,253.2000,96.1740,263.9730,0,U,48794,999,24825,-.19721E-4,.5E-7,0
ONEWEB-0233,2021-045AE,2026-07-17T14:15:10.544256,13.15550700,.0002274,87.8981,253.1757,103.2371,256.9013,0,U,48795,999,24829,.81727E-4,.44E-6,0
ONEWEB-0190,2021-045AF,2026-07-17T13:57:07.872768,13.15548534,.0002332,87.8987,253.1420,114.5666,245.5707,0,U,48796,999,24836,-.11794E-3,-.32E-6,0
ONEWEB-0236,2021-045AG,2026-07-17T14:22:14.261088,13.15548386,.0002125,87.8981,253.1460,94.7286,265.4087,0,U,48797,999,24825,.2402E-3,.103E-5,0
ONEWEB-0248,2021-045AH,2026-07-17T01:53:49.265952,13.15549452,.0002469,87.8993,253.2363,105.4740,254.6663,0,U,48798,999,24834,.35933059E-3,.148E-5,0
ONEWEB-0225,2021-045AJ,2026-07-17T02:25:46.580448,13.15548511,.00022899,87.8987,253.2390,111.5077,248.6297,0,U,48799,999,24835,-.21152289E-3,-.67E-6,0
ONEWEB-0215,2021-045AK,2026-07-17T14:29:04.077024,13.15549186,.0002443,87.8992,253.1230,111.8974,248.2417,0,U,48800,999,24829,.35225E-3,.145E-5,0
ONEWEB-0216,2021-045AL,2026-07-17T01:56:06.791424,13.15548889,.0002052,87.8990,253.2407,98.6416,261.4947,0,U,48801,999,24823,.26182E-3,.111E-5,0
ONEWEB-0239,2021-045AM,2026-07-17T14:49:37.252128,13.15547814,.0002753,87.8983,253.1376,110.2113,249.9314,0,U,48802,999,24834,.58285E-6,.13E-6,0
ONEWEB-0249,2021-060A,2026-07-17T07:11:31.127712,13.16592506,.0002166,87.9080,222.7966,95.0938,265.0440,0,U,48967,999,24357,.95698E-4,.49E-6,0
ONEWEB-0250,2021-060B,2026-07-17T02:48:53.201088,13.25835345,.0003055,87.9080,220.4916,84.2833,275.8651,0,U,48968,999,24418,-.11506E-3,-.37E-6,0
ONEWEB-0252,2021-060D,2026-07-17T11:34:52.091040,13.16595230,.0001885,87.9077,222.7525,96.4607,263.6739,0,U,48970,999,24364,-.15704E-3,-.47E-6,0
ONEWEB-0253,2021-060E,2026-07-17T02:11:44.000736,13.16595367,.00022162,87.9079,222.8353,93.5320,266.6064,0,U,48971,999,24352,-.17249094E-3,-.53E-6,0
ONEWEB-0254,2021-060F,2026-07-17T02:25:25.419360,13.16594954,.0002343,87.9081,222.8319,98.2740,261.8657,0,U,48972,999,24352,-.39581E-3,-.138E-5,0
ONEWEB-0255,2021-060G,2026-07-17T01:30:42.351552,13.16594178,.00021727,87.9078,222.8454,97.6248,262.5129,0,U,48973,999,24359,.17524655E-3,.8E-6,0
ONEWEB-0256,2021-060H,2026-07-17T11:15:30.317760,13.16586289,.0002005,87.9077,222.7675,92.6337,267.5023,0,U,48974,999,24361,.28084E-2,.1086E-4,0
ONEWEB-0257,2021-060J,2026-07-17T12:02:14.402112,13.16593577,.000205,87.9076,222.7495,97.6547,262.4817,0,U,48975,999,24357,.51771E-4,.33E-6,0
ONEWEB-0258,2021-060K,2026-07-17T01:07:54.331104,13.16594260,.00021574,87.9077,222.8524,94.7320,265.4058,0,U,48976,999,24352,.26565137E-3,.114E-5,0
ONEWEB-0259,2021-060L,2026-07-17T11:55:24.023712,13.16593677,.0002269,87.9075,222.7613,94.5167,265.6223,0,U,48977,999,24361,-.55814E-4,-.8E-7,0
ONEWEB-0260,2021-060M,2026-07-17T11:42:49.658400,13.16596110,.0001673,87.9072,222.7632,94.0407,266.0916,0,U,48978,999,24359,-.68111E-4,-.13E-6,0
ONEWEB-0261,2021-060N,2026-07-17T01:52:22.272384,13.16594160,.0002083,87.9078,222.8455,102.5872,257.5492,0,U,48979,999,24359,.86517643E-4,.46E-6,0
ONEWEB-0262,2021-060P,2026-07-17T12:20:28.734144,13.16594112,.0002329,87.9077,222.7456,94.8934,265.2463,0,U,48980,999,24361,.1445E-3,.68E-6,0
ONEWEB-0263,2021-060Q,2026-07-17T02:09:27.595008,13.16594435,.0002215,87.9079,222.8418,101.6256,258.5123,0,U,48981,999,24352,-.16447E-3,-.5E-6,0
ONEWEB-0264,2021-060R,2026-07-17T01:13:35.249088,13.16592540,.00019606,87.9071,222.8516,98.4127,261.7226,0,U,48982,999,24352,.18322047E-3,.83E-6,0
ONEWEB-0266,2021-060T,2026-07-17T12:40:58.607904,13.16595659,.0002117,87.9079,222.7482,91.9618,268.1755,0,U,48984,999,24357,.10382E-3,.53E-6,0
ONEWEB-0267,2021-060U,2026-07-17T11:07:31.306656,13.16594033,.0002074,87.9081,222.7577,100.1682,259.9682,0,U,48985,999,24357,-.13192E-3,-.38E-6,0
ONEWEB-0268,2021-060V,2026-07-17T01:14:43.465344,13.16601870,.00019572,87.9074,222.8493,93.3638,266.7717,0,U,48986,999,24378,.21075994E-2,.819E-5,0
ONEWEB-0269,2021-060W,2026-07-17T11:43:59.906784,13.16593982,.0001948,87.9072,222.7623,88.4028,271.7326,0,U,48987,999,24361,-.10874E-3,-.29E-6,0
ONEWEB-0270,2021-060X,2026-07-17T01:12:26.141184,13.16592588,.00023451,87.9080,222.8516,99.7198,260.4198,0,U,48988,999,24359,.70074922E-4,.4E-6,0
ONEWEB-0271,2021-060Y,2026-07-17T11:50:50.451072,13.16594162,.0002146,87.9075,222.7526,99.6634,260.4739,0,U,48989,999,24365,.10259E-4,.17E-6,0
ONEWEB-0272,2021-060Z,2026-07-17T01:26:08.012544,13.16595763,.00018314,87.9071,222.8496,99.3656,260.7683,0,U,48990,999,24354,.24416392E-3,.106E-5,0
ONEWEB-0273,2021-060AA,2026-07-17T01:58:03.527328,13.16594346,.0002171,87.9076,222.8460,96.1759,263.9619,0,U,48991,999,24352,-.20415E-4,.5E-7,0
ONEWEB-0274,2021-060AB,2026-07-17T11:41:41.797248,13.16595080,.0001778,87.9069,222.7650,95.5914,264.5419,0,U,48992,999,24361,-.14967E-3,-.44E-6,0
ONEWEB-0275,2021-060AC,2026-07-17T02:18:33.520320,13.16596064,.0002007,87.9081,222.8348,95.6589,264.4770,0,U,48993,999,24349,-.2237E-3,-.73E-6,0
ONEWEB-0276,2021-060AD,2026-07-17T12:13:38.453376,13.16594041,.0001905,87.9076,222.7518,94.9376,265.1972,0,U,48994,999,24356,.48477E-4,.31E-6,0
ONEWEB-0277,2021-060AE,2026-07-17T12:31:52.896000,13.16595447,.0002164,87.9073,222.7565,97.9598,262.1778,0,U,48995,999,24355,.12603E-3,.61E-6,0
ONEWEB-0278,2021-060AF,2026-07-17T01:21:35.283168,13.16594141,.00021884,87.9077,222.8412,89.0874,271.0508,0,U,48996,999,24362,.16905885E-3,.77E-6,0
ONEWEB-0279,2021-060AG,2026-07-17T01:32:59.230752,13.16593964,.00020083,87.9079,222.8377,100.7313,259.4044,0,U,48997,999,24355,.24240388E-3,.106E-5,0
ONEWEB-0280,2021-060AH,2026-07-17T01:54:37.936800,13.16595600,.0002434,87.9081,222.8387,93.6675,266.4734,0,U,48998,999,24349,.1805E-3,.82E-6,0
ONEWEB-0281,2021-060AJ,2026-07-17T07:30:54.724032,13.16591953,.0001672,87.9081,222.7888,82.5351,277.5970,0,U,48999,999,24359,-.53205E-2,-.2021E-4,0
ONEWEB-0282,2021-060AK,2026-07-17T11:53:06.753120,13.16594792,.0002198,87.9075,222.7595,96.0229,264.1153,0,U,49000,999,24359,-.15051E-3,-.45E-6,0
ONEWEB-0283,2021-060AL,2026-07-17T11:37:09.170688,13.16593600,.000205,87.9077,222.7607,97.7744,262.3620,0,U,49001,999,24360,-.15154E-3,-.45E-6,0
ONEWEB-0284,2021-060AM,2026-07-17T02:20:52.012608,13.16593929,.0002396,87.9079,222.8315,90.4914,269.6492,0,U,49002,999,24353,-.34592E-3,-.119E-5,0
ONEWEB-0285,2021-075A,2026-07-17T15:09:12.171168,13.12443166,.0001549,87.8974,344.6098,93.5123,266.6183,0,U,49075,999,23920,.28623E-2,.1043E-4,0
ONEWEB-0286,2021-075B,2026-07-17T09:14:01.789152,13.12443560,.0001751,87.8963,344.6725,89.9854,270.1475,0,U,49076,999,23852,.7125E-3,.269E-5,0
ONEWEB-0287,2021-075C,2026-07-17T09:20:30.958080,13.17648726,.0001832,87.9147,359.8570,80.0517,280.0821,0,U,49077,999,23760,.81543E-4,.45E-6,0
ONEWEB-0288,2021-075D,2026-07-16T21:41:22.079328,13.12442756,.00019496,87.8972,344.7475,89.5601,270.5751,0,U,49078,999,23908,-.11193469E-2,-.39E-5,0
ONEWEB-0289,2021-075E,2026-07-17T10:16:24.123936,13.17649929,.0002292,87.9152,359.8681,96.2289,263.9104,0,U,49079,999,23818,.19729E-3,.89E-6,0
ONEWEB-0290,2021-075F,2026-07-17T16:54:54.676800,13.17650603,.0002379,87.9156,359.7861,96.1358,264.0045,0,U,49080,999,23763,-.17369E-3,-.55E-6,0
ONEWEB-0291,2021-075G,2026-07-17T16:33:04.603104,13.17647440,.0002085,87.9151,359.7942,85.8491,274.2879,0,U,49081,999,23762,.21166E-4,.21E-6,0
ONEWEB-0293,2021-075H,2026-07-17T09:52:05.647008,13.17650057,.0002037,87.9148,359.8527,92.6444,267.4921,0,U,49082,999,23761,-.6197E-4,-.11E-6,0
ONEWEB-0294,2021-075J,2026-07-17T16:08:56.660064,13.12443754,.00022,87.8974,344.5983,96.7294,263.4085,0,U,49083,999,23857,-.94849E-3,-.328E-5,0
ONEWEB-0295,2021-075K,2026-07-17T17:08:16.867104,13.17650323,.0001952,87.9148,359.7963,83.8402,276.2952,0,U,49084,999,23761,-.20841E-4,.5E-7,0
ONEWEB-0296,2021-075L,2026-07-17T15:39:40.269024,13.12442290,.0002008,87.8973,344.6109,87.6098,272.5260,0,U,49085,999,23857,-.62193E-3,-.211E-5,0
ONEWEB-0297,2021-075M,2026-07-16T22:05:46.289760,13.12443940,.0001862,87.8962,344.7634,92.6527,267.4815,0,U,49086,999,23908,.33341E-3,.133E-5,0
ONEWEB-0298,2021-075N,2026-07-17T17:14:35.140128,13.17649074,.0001756,87.9148,359.7937,91.8067,268.3266,0,U,49087,999,23764,.14863E-3,.71E-6,0
ONEWEB-0299,2021-075P,2026-07-17T09:59:23.999136,13.17648343,.0001836,87.9158,359.8370,88.0006,272.1336,0,U,49088,999,23758,.88075E-4,.47E-6,0
ONEWEB-0300,2021-075Q,2026-07-17T16:12:36.186048,13.12444033,.0001475,87.8975,344.5959,96.3883,263.7413,0,U,49089,999,23920,-.51107E-3,-.171E-5,0
